CCSDS_OMM_VERS = 2.0
CREATION_DATE  = 
ORIGINATOR     = 

OBJECT_NAME    = ATLAS CENTAUR R/B
OBJECT_ID      = 1972-065B
CENTER_NAME    = EARTH
REF_FRAME      = TEME
TIME_SYSTEM    = UTC
MEAN_ELEMENT_THEORY = SGP/SGP4

EPOCH          = 2025-10-28T12:20:19.210272
MEAN_MOTION    = 14.77228532
ECCENTRICITY   = .00340888
INCLINATION    = 35.0031
RA_OF_ASC_NODE = 0.0840
ARG_OF_PERICENTER = 337.4023
MEAN_ANOMALY   = 22.5176

EPHEMERIS_TYPE = 0
CLASSIFICATION_TYPE = U
NORAD_CAT_ID   = 6155
ELEMENT_SET_NO = 999
REV_AT_EPOCH   = 82170
BSTAR          = .2821259E-3
MEAN_MOTION_DOT = .2028E-4
MEAN_MOTION_DDOT = 0

CCSDS_OMM_VERS = 2.0
CREATION_DATE  = 
ORIGINATOR     = 

OBJECT_NAME    = SL-8 R/B
OBJECT_ID      = 1975-112B
CENTER_NAME    = EARTH
REF_FRAME      = TEME
TIME_SYSTEM    = UTC
MEAN_ELEMENT_THEORY = SGP/SGP4

EPOCH          = 2025-10-28T08:04:18.522336
MEAN_MOTION    = 14.38101204
ECCENTRICITY   = .00151049
INCLINATION    = 74.0596
RA_OF_ASC_NODE = 262.3660
ARG_OF_PERICENTER = 21.9033
MEAN_ANOMALY   = 338.2763

EPHEMERIS_TYPE = 0
CLASSIFICATION_TYPE = U
NORAD_CAT_ID   = 8459
ELEMENT_SET_NO = 999
REV_AT_EPOCH   = 61284
BSTAR          = .1490898E-3
MEAN_MOTION_DOT = .426E-5
MEAN_MOTION_DDOT = 0

CCSDS_OMM_VERS = 2.0
CREATION_DATE  = 
ORIGINATOR     = 

OBJECT_NAME    = SL-3 R/B
OBJECT_ID      = 1977-057B
CENTER_NAME    = EARTH
REF_FRAME      = TEME
TIME_SYSTEM    = UTC
MEAN_ELEMENT_THEORY = SGP/SGP4

EPOCH          = 2025-10-28T14:19:24.962016
MEAN_MOTION    = 15.41525202
ECCENTRICITY   = .00086974
INCLINATION    = 97.5682
RA_OF_ASC_NODE = 103.2224
ARG_OF_PERICENTER = 46.2550
MEAN_ANOMALY   = 313.9415

EPHEMERIS_TYPE = 0
CLASSIFICATION_TYPE = U
NORAD_CAT_ID   = 10114
ELEMENT_SET_NO = 999
REV_AT_EPOCH   = 64795
BSTAR          = .3215568E-3
MEAN_MOTION_DOT = .13426E-3
MEAN_MOTION_DDOT = 0

CCSDS_OMM_VERS = 2.0
CREATION_DATE  = 
ORIGINATOR     = 

OBJECT_NAME    = SEASAT 1
OBJECT_ID      = 1978-064A
CENTER_NAME    = EARTH
REF_FRAME      = TEME
TIME_SYSTEM    = UTC
MEAN_ELEMENT_THEORY = SGP/SGP4

EPOCH          = 2025-10-28T12:12:17.887104
MEAN_MOTION    = 14.45985149
ECCENTRICITY   = .00026504
INCLINATION    = 108.0046
RA_OF_ASC_NODE = 208.1623
ARG_OF_PERICENTER = 262.8848
MEAN_ANOMALY   = 97.1996

EPHEMERIS_TYPE = 0
CLASSIFICATION_TYPE = U
NORAD_CAT_ID   = 10967
ELEMENT_SET_NO = 999
REV_AT_EPOCH   = 48740
BSTAR          = .19106437E-3
MEAN_MOTION_DOT = .544E-5
MEAN_MOTION_DDOT = 0

CCSDS_OMM_VERS = 2.0
CREATION_DATE  = 
ORIGINATOR     = 

OBJECT_NAME    = SL-14 R/B
OBJECT_ID      = 1979-011B
CENTER_NAME    = EARTH
REF_FRAME      = TEME
TIME_SYSTEM    = UTC
MEAN_ELEMENT_THEORY = SGP/SGP4

EPOCH          = 2025-10-28T12:14:58.111584
MEAN_MOTION    = 14.91684605
ECCENTRICITY   = .00171803
INCLINATION    = 82.5260
RA_OF_ASC_NODE = 221.9288
ARG_OF_PERICENTER = 134.6963
MEAN_ANOMALY   = 225.5659

EPHEMERIS_TYPE = 0
CLASSIFICATION_TYPE = U
NORAD_CAT_ID   = 11267
ELEMENT_SET_NO = 999
REV_AT_EPOCH   = 50907
BSTAR          = .96320742E-4
MEAN_MOTION_DOT = .996E-5
MEAN_MOTION_DDOT = 0

CCSDS_OMM_VERS = 2.0
CREATION_DATE  = 
ORIGINATOR     = 

OBJECT_NAME    = SL-8 R/B
OBJECT_ID      = 1979-089B
CENTER_NAME    = EARTH
REF_FRAME      = TEME
TIME_SYSTEM    = UTC
MEAN_ELEMENT_THEORY = SGP/SGP4

EPOCH          = 2025-10-28T13:00:06.047424
MEAN_MOTION    = 14.42237706
ECCENTRICITY   = .00156929
INCLINATION    = 74.0694
RA_OF_ASC_NODE = 335.6349
ARG_OF_PERICENTER = 186.3193
MEAN_ANOMALY   = 173.7768

EPHEMERIS_TYPE = 0
CLASSIFICATION_TYPE = U
NORAD_CAT_ID   = 11574
ELEMENT_SET_NO = 999
REV_AT_EPOCH   = 41705
BSTAR          = .12704165E-3
MEAN_MOTION_DOT = .393E-5
MEAN_MOTION_DDOT = 0

CCSDS_OMM_VERS = 2.0
CREATION_DATE  = 
ORIGINATOR     = 

OBJECT_NAME    = SL-14 R/B
OBJECT_ID      = 1980-005B
CENTER_NAME    = EARTH
REF_FRAME      = TEME
TIME_SYSTEM    = UTC
MEAN_ELEMENT_THEORY = SGP/SGP4

EPOCH          = 2025-10-28T10:28:36.281856
MEAN_MOTION    = 14.90696962
ECCENTRICITY   = .00144977
INCLINATION    = 82.5138
RA_OF_ASC_NODE = 72.6544
ARG_OF_PERICENTER = 242.1533
MEAN_ANOMALY   = 117.8218

EPHEMERIS_TYPE = 0
CLASSIFICATION_TYPE = U
NORAD_CAT_ID   = 11672
ELEMENT_SET_NO = 999
REV_AT_EPOCH   = 45678
BSTAR          = .11106346E-3
MEAN_MOTION_DOT = .1116E-4
MEAN_MOTION_DDOT = 0

CCSDS_OMM_VERS = 2.0
CREATION_DATE  = 
ORIGINATOR     = 

OBJECT_NAME    = SL-8 R/B
OBJECT_ID      = 1981-003B
CENTER_NAME    = EARTH
REF_FRAME      = TEME
TIME_SYSTEM    = UTC
MEAN_ELEMENT_THEORY = SGP/SGP4

EPOCH          = 2025-10-28T13:13:40.579104
MEAN_MOTION    = 15.04588377
ECCENTRICITY   = .02850105
INCLINATION    = 82.9329
RA_OF_ASC_NODE = 51.7123
ARG_OF_PERICENTER = 276.5051
MEAN_ANOMALY   = 80.3805

EPHEMERIS_TYPE = 0
CLASSIFICATION_TYPE = U
NORAD_CAT_ID   = 12139
ELEMENT_SET_NO = 999
REV_AT_EPOCH   = 29476
BSTAR          = .68256003E-3
MEAN_MOTION_DOT = .2431E-3
MEAN_MOTION_DDOT = 0

CCSDS_OMM_VERS = 2.0
CREATION_DATE  = 
ORIGINATOR     = 

OBJECT_NAME    = SL-3 R/B
OBJECT_ID      = 1981-046B
CENTER_NAME    = EARTH
REF_FRAME      = TEME
TIME_SYSTEM    = UTC
MEAN_ELEMENT_THEORY = SGP/SGP4

EPOCH          = 2025-10-28T13:40:25.277664
MEAN_MOTION    = 15.38203067
ECCENTRICITY   = .00208326
INCLINATION    = 81.2314
RA_OF_ASC_NODE = 87.9101
ARG_OF_PERICENTER = 118.1644
MEAN_ANOMALY   = 242.1705

EPHEMERIS_TYPE = 0
CLASSIFICATION_TYPE = U
NORAD_CAT_ID   = 12465
ELEMENT_SET_NO = 999
REV_AT_EPOCH   = 41809
BSTAR          = .39654102E-3
MEAN_MOTION_DOT = .15068E-3
MEAN_MOTION_DDOT = 0

CCSDS_OMM_VERS = 2.0
CREATION_DATE  = 
ORIGINATOR     = 

OBJECT_NAME    = METEOR PRIRODA
OBJECT_ID      = 1981-065A
CENTER_NAME    = EARTH
REF_FRAME      = TEME
TIME_SYSTEM    = UTC
MEAN_ELEMENT_THEORY = SGP/SGP4

EPOCH          = 2025-10-28T14:27:57.309696
MEAN_MOTION    = 15.97214583
ECCENTRICITY   = .00010585
INCLINATION    = 97.4623
RA_OF_ASC_NODE = 4.4500
ARG_OF_PERICENTER = 352.7493
MEAN_ANOMALY   = 7.3768

EPHEMERIS_TYPE = 0
CLASSIFICATION_TYPE = U
NORAD_CAT_ID   = 12585
ELEMENT_SET_NO = 999
REV_AT_EPOCH   = 42356
BSTAR          = .71209532E-3
MEAN_MOTION_DOT = .308317E-2
MEAN_MOTION_DDOT = .40386073E-4

CCSDS_OMM_VERS = 2.0
CREATION_DATE  = 
ORIGINATOR     = 

OBJECT_NAME    = SL-3 R/B
OBJECT_ID      = 1981-103B
CENTER_NAME    = EARTH
REF_FRAME      = TEME
TIME_SYSTEM    = UTC
MEAN_ELEMENT_THEORY = SGP/SGP4

EPOCH          = 2025-10-28T15:03:29.710080
MEAN_MOTION    = 15.19478842
ECCENTRICITY   = .00178353
INCLINATION    = 81.1619
RA_OF_ASC_NODE = 8.1542
ARG_OF_PERICENTER = 29.8082
MEAN_ANOMALY   = 330.4160

EPHEMERIS_TYPE = 0
CLASSIFICATION_TYPE = U
NORAD_CAT_ID   = 12904
ELEMENT_SET_NO = 999
REV_AT_EPOCH   = 95316
BSTAR          = .24178341E-3
MEAN_MOTION_DOT = .5174E-4
MEAN_MOTION_DDOT = 0

CCSDS_OMM_VERS = 2.0
CREATION_DATE  = 
ORIGINATOR     = 

OBJECT_NAME    = SL-3 R/B
OBJECT_ID      = 1982-013B
CENTER_NAME    = EARTH
REF_FRAME      = TEME
TIME_SYSTEM    = UTC
MEAN_ELEMENT_THEORY = SGP/SGP4

EPOCH          = 2025-10-28T13:45:22.604256
MEAN_MOTION    = 15.20504875
ECCENTRICITY   = .00215639
INCLINATION    = 81.1740
RA_OF_ASC_NODE = 315.4637
ARG_OF_PERICENTER = 264.2760
MEAN_ANOMALY   = 95.6012

EPHEMERIS_TYPE = 0
CLASSIFICATION_TYPE = U
NORAD_CAT_ID   = 13068
ELEMENT_SET_NO = 999
REV_AT_EPOCH   = 38426
BSTAR          = .24537221E-3
MEAN_MOTION_DOT = .542E-4
MEAN_MOTION_DDOT = 0

