ATLAS CENTAUR R/B       
1 06155U 72065B   25301.51411123  .00002028  00000+0  28213-3 0  9996
2 06155  35.0031   0.0840 0034088 337.4023  22.5176 14.77228532821700
SL-8 R/B                
1 08459U 75112B   25301.33632549  .00000426  00000+0  14909-3 0  9995
2 08459  74.0596 262.3660 0015104  21.9033 338.2763 14.38101204612840
SL-3 R/B                
1 10114U 77057B   25301.59681669  .00013426  00000+0  32156-3 0  9999
2 10114  97.5682 103.2224 0008697  46.2550 313.9415 15.41525202647956
SEASAT 1                
1 10967U 78064A   25301.50854036  .00000544  00000+0  19106-3 0  9992
2 10967 108.0046 208.1623 0002650 262.8848  97.1996 14.45985149487401
SL-14 R/B               
1 11267U 79011B   25301.51039481  .00000996  00000+0  96321-4 0  9995
2 11267  82.5260 221.9288 0017180 134.6963 225.5659 14.91684605509072
SL-8 R/B                
1 11574U 79089B   25301.54173666  .00000393  00000+0  12704-3 0  9991
2 11574  74.0694 335.6349 0015692 186.3193 173.7768 14.42237706417059
SL-14 R/B               
1 11672U 80005B   25301.43653104  .00001116  00000+0  11106-3 0  9997
2 11672  82.5138  72.6544 0014497 242.1533 117.8218 14.90696962456789
SL-8 R/B                
1 12139U 81003B   25301.55116411  .00024310  00000+0  68256-3 0  9992
2 12139  82.9329  51.7123 0285010 276.5051  80.3805 15.04588377294762
SL-3 R/B                
1 12465U 81046B   25301.56973701  .00015068  00000+0  39654-3 0  9995
2 12465  81.2314  87.9101 0020832 118.1644 242.1705 15.38203067418093
METEOR PRIRODA          
1 12585U 81065A   25301.60274664  .00308317  40386-4  71210-3 0  9998
2 12585  97.4623   4.4500 0001058 352.7493   7.3768 15.97214583423560
SL-3 R/B                
1 12904U 81103B   25301.62742720  .00005174  00000+0  24178-3 0  9991
2 12904  81.1619   8.1542 0017835  29.8082 330.4160 15.19478842953167
SL-3 R/B                
1 13068U 82013B   25301.57317829  .00005420  00000+0  24537-3 0  9999
2 13068  81.1740 315.4637 0021563 264.2760  95.6012 15.20504875384267
